{
  "type": "FeatureCollection",
  "features": [
    {
      "type": "Feature",
      "properties": {
        "norad_id": 22490,
        "name": "SCD 1",
        "group": "resource",
        "lat": -6.921605371022712,
        "lon": -100.30535671724557,
        "alt_km": 708.5122809325894,
        "timestamp": "2025-12-13T08:49:15.349805+00:00",
        "meta_object_name": "SCD 1",
        "meta_object_id": "1993-009B",
        "meta_epoch": "2025-12-12T05:23:25.712160",
        "meta_mean_motion": 14.4599861,
        "meta_eccentricity": 0.00417838,
        "meta_inclination": 24.97,
        "meta_ra_of_asc_node": 281.8676,
        "meta_arg_of_pericenter": 319.5532,
        "meta_mean_anomaly": 182.0481,
        "meta_ephemeris_type": 0,
        "meta_classification_type": "U",
        "meta_norad_cat_id": 22490,
        "meta_element_set_no": 999,
        "meta_rev_at_epoch": 73402,
        "meta_bstar": 0.00015231045,
        "meta_mean_motion_dot": 7.43e-06,
        "meta_mean_motion_ddot": 0,
        "tle_line1": "1 22490U 93009B   25346.22460315  .00000743  00000+0  15231-3 0  9999",
        "tle_line2": "2 22490  24.9700 281.8676 0041783 319.5532 182.0481 14.45998610734027"
      },
      "geometry": {
        "type": "Point",
        "coordinates": [
          -100.30535671724557,
          -6.921605371022712
        ]
      }
    },
    {
      "type": "Feature",
      "properties": {
        "norad_id": 25397,
        "name": "TECHSAT 1B (GO-32)",
        "group": "resource",
        "lat": 32.929619718204506,
        "lon": 156.48015209415982,
        "alt_km": 808.5484658731548,
        "timestamp": "2025-12-13T08:49:15.349833+00:00",
        "meta_object_name": "TECHSAT 1B (GO-32)",
        "meta_object_id": "1998-043D",
        "meta_epoch": "2025-12-12T22:01:12.711072",
        "meta_mean_motion": 14.24377113,
        "meta_eccentricity": 0.00020463,
        "meta_inclination": 98.992,
        "meta_ra_of_asc_node": 330.1336,
        "meta_arg_of_pericenter": 56.9971,
        "meta_mean_anomaly": 303.1404,
        "meta_ephemeris_type": 0,
        "meta_classification_type": "U",
        "meta_norad_cat_id": 25397,
        "meta_element_set_no": 999,
        "meta_rev_at_epoch": 42481,
        "meta_bstar": 9.1119791e-05,
        "meta_mean_motion_dot": 1.64e-06,
        "meta_mean_motion_ddot": 0,
        "tle_line1": "1 25397U 98043D   25346.91750823  .00000164  00000+0  91120-4 0  9992",
        "tle_line2": "2 25397  98.9920 330.1336 0002046  56.9971 303.1404 14.24377113424810"
      },
      "geometry": {
        "type": "Point",
        "coordinates": [
          156.48015209415982,
          32.929619718204506
        ]
      }
    },
    {
      "type": "Feature",
      "properties": {
        "norad_id": 25504,
        "name": "SCD 2",
        "group": "resource",
        "lat": 5.954226160809207,
        "lon": 150.96384487199822,
        "alt_km": 730.8624047655967,
        "timestamp": "2025-12-13T08:49:15.349849+00:00",
        "meta_object_name": "SCD 2",
        "meta_object_id": "1998-060A",
        "meta_epoch": "2025-12-12T17:56:46.046688",
        "meta_mean_motion": 14.45423471,
        "meta_eccentricity": 0.00166549,
        "meta_inclination": 24.9933,
        "meta_ra_of_asc_node": 141.8465,
        "meta_arg_of_pericenter": 313.7297,
        "meta_mean_anomaly": 68.7779,
        "meta_ephemeris_type": 0,
        "meta_classification_type": "U",
        "meta_norad_cat_id": 25504,
        "meta_element_set_no": 999,
        "meta_rev_at_epoch": 43332,
        "meta_bstar": 0.00011955231,
        "meta_mean_motion_dot": 6.1e-06,
        "meta_mean_motion_ddot": 0,
        "tle_line1": "1 25504U 98060A   25346.74775517  .00000610  00000+0  11955-3 0  9992",
        "tle_line2": "2 25504  24.9933 141.8465 0016654 313.7297  68.7779 14.45423471433325"
      },
      "geometry": {
        "type": "Point",
        "coordinates": [
          150.96384487199822,
          5.954226160809207
        ]
      }
    },
    {
      "type": "Feature",
      "properties": {
        "norad_id": 25757,
        "name": "DLR-TUBSAT",
        "group": "resource",
        "lat": 66.21395289931566,
        "lon": -48.31975244293753,
        "alt_km": 716.8598396982952,
        "timestamp": "2025-12-13T08:49:15.349862+00:00",
        "meta_object_name": "DLR-TUBSAT",
        "meta_object_id": "1999-029B",
        "meta_epoch": "2025-12-12T22:35:19.039776",
        "meta_mean_motion": 14.52357809,
        "meta_eccentricity": 0.00139098,
        "meta_inclination": 98.6563,
        "meta_ra_of_asc_node": 331.4611,
        "meta_arg_of_pericenter": 192.2046,
        "meta_mean_anomaly": 167.8814,
        "meta_ephemeris_type": 0,
        "meta_classification_type": "U",
        "meta_norad_cat_id": 25757,
        "meta_element_set_no": 999,
        "meta_rev_at_epoch": 40621,
        "meta_bstar": 7.1932736e-05,
        "meta_mean_motion_dot": 2.45e-06,
        "meta_mean_motion_ddot": 0,
        "tle_line1": "1 25757U 99029B   25346.94119259  .00000245  00000+0  71933-4 0  9992",
        "tle_line2": "2 25757  98.6563 331.4611 0013909 192.2046 167.8814 14.52357809406212"
      },
      "geometry": {
        "type": "Point",
        "coordinates": [
          -48.31975244293753,
          66.21395289931566
        ]
      }
    },
    {
      "type": "Feature",
      "properties": {
        "norad_id": 25994,
        "name": "TERRA",
        "group": "resource",
        "lat": 29.17033057238425,
        "lon": -136.48279180594074,
        "alt_km": 687.5011931481549,
        "timestamp": "2025-12-13T08:49:15.349874+00:00",
        "meta_object_name": "TERRA",
        "meta_object_id": "1999-068A",
        "meta_epoch": "2025-12-13T00:26:47.133312",
        "meta_mean_motion": 14.60902488,
        "meta_eccentricity": 0.00036045,
        "meta_inclination": 97.975,
        "meta_ra_of_asc_node": 38.6929,
        "meta_arg_of_pericenter": 93.9258,
        "meta_mean_anomaly": 22.4022,
        "meta_ephemeris_type": 0,
        "meta_classification_type": "U",
        "meta_norad_cat_id": 25994,
        "meta_element_set_no": 999,
        "meta_rev_at_epoch": 38242,
        "meta_bstar": 0.00016956886,
        "meta_mean_motion_dot": 7.85e-06,
        "meta_mean_motion_ddot": 0,
        "tle_line1": "1 25994U 99068A   25347.01860108  .00000785  00000+0  16957-3 0  9996",
        "tle_line2": "2 25994  97.9750  38.6929 0003604  93.9258  22.4022 14.60902488382427"
      },
      "geometry": {
        "type": "Point",
        "coordinates": [
          -136.48279180594074,
          29.17033057238425
        ]
      }
    },
    {
      "type": "Feature",
      "properties": {
        "norad_id": 27004,
        "name": "MAROC-TUBSAT",
        "group": "resource",
        "lat": -63.526792155510286,
        "lon": 176.1114348813602,
        "alt_km": 994.4125118076663,
        "timestamp": "2025-12-13T08:49:15.349887+00:00",
        "meta_object_name": "MAROC-TUBSAT",
        "meta_object_id": "2001-056D",
        "meta_epoch": "2025-12-13T00:55:04.426752",
        "meta_mean_motion": 13.70252903,
        "meta_eccentricity": 0.00191002,
        "meta_inclination": 99.7912,
        "meta_ra_of_asc_node": 155.4884,
        "meta_arg_of_pericenter": 259.3476,
        "meta_mean_anomaly": 211.7615,
        "meta_ephemeris_type": 0,
        "meta_classification_type": "U",
        "meta_norad_cat_id": 27004,
        "meta_element_set_no": 999,
        "meta_rev_at_epoch": 20069,
        "meta_bstar": 4.6620533e-05,
        "meta_mean_motion_dot": -6e-08,
        "meta_mean_motion_ddot": 0,
        "tle_line1": "1 27004U 01056D   25347.03824568 -.00000006  00000+0  46621-4 0  9991",
        "tle_line2": "2 27004  99.7912 155.4884 0019100 259.3476 211.7615 13.70252903200696"
      },
      "geometry": {
        "type": "Point",
        "coordinates": [
          176.1114348813602,
          -63.526792155510286
        ]
      }
    },
    {
      "type": "Feature",
      "properties": {
        "norad_id": 27424,
        "name": "AQUA",
        "group": "resource",
        "lat": 27.086790153911952,
        "lon": -56.079269833212116,
        "alt_km": 686.2149470221393,
        "timestamp": "2025-12-13T08:49:15.349898+00:00",
        "meta_object_name": "AQUA",
        "meta_object_id": "2002-022A",
        "meta_epoch": "2025-12-13T00:49:03.357696",
        "meta_mean_motion": 14.61810917,
        "meta_eccentricity": 0.0001135,
        "meta_inclination": 98.4037,
        "meta_ra_of_asc_node": 307.9179,
        "meta_arg_of_pericenter": 115.4509,
        "meta_mean_anomaly": 318.2019,
        "meta_ephemeris_type": 0,
        "meta_classification_type": "U",
        "meta_norad_cat_id": 27424,
        "meta_element_set_no": 999,
        "meta_rev_at_epoch": 25607,
        "meta_bstar": 0.00038558975,
        "meta_mean_motion_dot": 1.876e-05,
        "meta_mean_motion_ddot": 0,
        "tle_line1": "1 27424U 02022A   25347.03406664  .00001876  00000+0  38559-3 0  9999",
        "tle_line2": "2 27424  98.4037 307.9179 0001135 115.4509 318.2019 14.61810917256075"
      },
      "geometry": {
        "type": "Point",
        "coordinates": [
          -56.079269833212116,
          27.086790153911952
        ]
      }
    }
  ]
}